LEMUR-2-VALHALLA        
1 58900U 24022B   26202.11929081  .00011964  00000+0  29564-3 0  9994
2 58900  97.4082  52.5373 0008598   3.2856 356.8445 15.40602327137492
LEMUR-2-CAEL            
1 58903U 24022E   26202.09962609  .00013353  00000+0  31515-3 0  9990
2 58903  97.4059  53.5148 0006535 347.0246  13.0832 15.41981340137567
LEMUR-2-JOHNNYTRUONG    
1 59146U 24043BA  26201.98089740  .00033688  00000+0  37364-3 0  9997
2 59146  97.5400 355.8471 0003744  76.5913 283.5762 15.62881702133318
LEMUR-2-TOMATOKECHUP    
1 60471U 24149D   26202.17067799  .00008094  00000+0  22832-3 0  9996
2 60471  97.3785 284.3180 0003443 111.4342 248.7269 15.36660114107385
LEMUR-2-STELLA          
1 60533U 24149BT  26202.02828261  .00007820  00000+0  45354-3 0  9998
2 60533  97.6727 284.6459 0001403 121.9887 238.1480 15.12444968105612
LEMUR-2-MARHISYAM       
1 60536U 24149BW  26202.15386185  .00006842  00000+0  40399-3 0  9996
2 60536  97.6870 285.2548 0002193  60.8251 299.3199 15.11845849105611
LEMUR-2-AHMED-ASRAR     
1 60576U 24149DN  26202.15433452  .00008023  00000+0  45323-3 0  9995
2 60576  97.6995 287.4822 0001723 180.4324 179.6905 15.13386023105701
LEMUR-2-LLOYD           
1 60577U 24149DP  26202.24606155  .00008025  00000+0  50011-3 0  9990
2 60577  97.6731 283.4059 0004190  55.5572 304.6053 15.09816837105537
LEMUR-2-SQUIRRELCOMM    
1 60578U 24149DQ  26201.77932695  .00003857  00000+0  25845-3 0  9994
2 60578  97.6699 282.5908 0004006 299.4293  60.6535 15.07479136105460
LEMUR-2-SIERRINI        
1 60579U 24149DR  26202.24998587  .00008801  00000+0  52195-3 0  9992
2 60579  97.6829 285.0069 0006061  74.5951 285.5948 15.11587709105601
LEMUR-2-WILSON          
1 62694U 25009CP  26202.15759560  .00001705  00000+0  15997-3 0  9999
2 62694  97.7015 280.0266 0001606 288.8228  71.2818 14.95291454 82431
LEMUR-2-STAR-FOX        
1 62696U 25009CR  26202.18575034  .00005773  00000+0  43477-3 0  9999
2 62696  97.6900 283.5498 0001583  17.9972 342.1308 15.02890489 82662
LEMUR-2-ARIANNA         
1 62699U 25009CU  26201.71814555  .00004862  00000+0  36687-3 0  9997
2 62699  97.6840 282.8336 0001909  29.6722 330.4611 15.02887787 82592
LEMUR-2-ALISIA          
1 62706U 25009DB  26202.15524690  .00005641  00000+0  42106-3 0  9992
2 62706  97.6959 284.1041 0004930 113.3141 246.8604 15.03227903105264
LEMUR-2-ROUNDTRIPPER    
1 62711U 25009DG  26202.15624199  .00005644  00000+0  40970-3 0  9993
2 62711  97.7239 284.7966 0004408  52.8285 307.3343 15.04286343 82733
LEMUR-2-MYNAMEISJEFF    
1 62712U 25009DH  26201.95520839  .00005608  00000+0  40720-3 0  9990
2 62712  97.7287 284.9972 0004332  86.1884 273.9837 15.04275983 82708
