{"fetched_at":"2026-07-21T17:53:10.368Z","source":"https://celestrak.org/NORAD/elements/gp.php?GROUP=spire&FORMAT=JSON","constellation":"spire","records":[{"OBJECT_NAME":"LEMUR-2-VALHALLA","OBJECT_ID":"2024-022B","EPOCH":"2026-07-21T02:51:46.725984","CLASSIFICATION_TYPE":"U","MEAN_MOTION":15.40602327,"ECCENTRICITY":0.00085986,"INCLINATION":97.4082,"RA_OF_ASC_NODE":52.5373,"ARG_OF_PERICENTER":3.2856,"MEAN_ANOMALY":356.8445,"EPHEMERIS_TYPE":0,"NORAD_CAT_ID":58900,"ELEMENT_SET_NO":999,"REV_AT_EPOCH":13749,"BSTAR":0.00029563612,"MEAN_MOTION_DOT":0.00011964,"MEAN_MOTION_DDOT":0},{"OBJECT_NAME":"LEMUR-2-CAEL","OBJECT_ID":"2024-022E","EPOCH":"2026-07-21T02:23:27.694176","CLASSIFICATION_TYPE":"U","MEAN_MOTION":15.4198134,"ECCENTRICITY":0.0006535,"INCLINATION":97.4059,"RA_OF_ASC_NODE":53.5148,"ARG_OF_PERICENTER":347.0246,"MEAN_ANOMALY":13.0832,"EPHEMERIS_TYPE":0,"NORAD_CAT_ID":58903,"ELEMENT_SET_NO":999,"REV_AT_EPOCH":13756,"BSTAR":0.0003151525,"MEAN_MOTION_DOT":0.00013353,"MEAN_MOTION_DDOT":0},{"OBJECT_NAME":"LEMUR-2-JOHNNYTRUONG","OBJECT_ID":"2024-043BA","EPOCH":"2026-07-20T23:32:29.535360","CLASSIFICATION_TYPE":"U","MEAN_MOTION":15.62881702,"ECCENTRICITY":0.0003744,"INCLINATION":97.54,"RA_OF_ASC_NODE":355.8471,"ARG_OF_PERICENTER":76.5913,"MEAN_ANOMALY":283.5762,"EPHEMERIS_TYPE":0,"NORAD_CAT_ID":59146,"ELEMENT_SET_NO":999,"REV_AT_EPOCH":13331,"BSTAR":0.00037364087,"MEAN_MOTION_DOT":0.00033688,"MEAN_MOTION_DDOT":0},{"OBJECT_NAME":"LEMUR-2-TOMATOKECHUP","OBJECT_ID":"2024-149D","EPOCH":"2026-07-21T04:05:46.578336","CLASSIFICATION_TYPE":"U","MEAN_MOTION":15.36660114,"ECCENTRICITY":0.00034432,"INCLINATION":97.3785,"RA_OF_ASC_NODE":284.318,"ARG_OF_PERICENTER":111.4342,"MEAN_ANOMALY":248.7269,"EPHEMERIS_TYPE":0,"NORAD_CAT_ID":60471,"ELEMENT_SET_NO":999,"REV_AT_EPOCH":10738,"BSTAR":0.00022832386,"MEAN_MOTION_DOT":0.00008094,"MEAN_MOTION_DDOT":0},{"OBJECT_NAME":"LEMUR-2-STELLA","OBJECT_ID":"2024-149BT","EPOCH":"2026-07-21T00:40:43.617504","CLASSIFICATION_TYPE":"U","MEAN_MOTION":15.12444968,"ECCENTRICITY":0.00014035,"INCLINATION":97.6727,"RA_OF_ASC_NODE":284.6459,"ARG_OF_PERICENTER":121.9887,"MEAN_ANOMALY":238.148,"EPHEMERIS_TYPE":0,"NORAD_CAT_ID":60533,"ELEMENT_SET_NO":999,"REV_AT_EPOCH":10561,"BSTAR":0.00045353856,"MEAN_MOTION_DOT":0.0000782,"MEAN_MOTION_DDOT":0},{"OBJECT_NAME":"LEMUR-2-MARHISYAM","OBJECT_ID":"2024-149BW","EPOCH":"2026-07-21T03:41:33.663840","CLASSIFICATION_TYPE":"U","MEAN_MOTION":15.11845849,"ECCENTRICITY":0.00021939,"INCLINATION":97.687,"RA_OF_ASC_NODE":285.2548,"ARG_OF_PERICENTER":60.8251,"MEAN_ANOMALY":299.3199,"EPHEMERIS_TYPE":0,"NORAD_CAT_ID":60536,"ELEMENT_SET_NO":999,"REV_AT_EPOCH":10561,"BSTAR":0.00040398802,"MEAN_MOTION_DOT":0.00006842,"MEAN_MOTION_DDOT":0},{"OBJECT_NAME":"LEMUR-2-AHMED-ASRAR","OBJECT_ID":"2024-149DN","EPOCH":"2026-07-21T03:42:14.502528","CLASSIFICATION_TYPE":"U","MEAN_MOTION":15.13386023,"ECCENTRICITY":0.00017236,"INCLINATION":97.6995,"RA_OF_ASC_NODE":287.4822,"ARG_OF_PERICENTER":180.4324,"MEAN_ANOMALY":179.6905,"EPHEMERIS_TYPE":0,"NORAD_CAT_ID":60576,"ELEMENT_SET_NO":999,"REV_AT_EPOCH":10570,"BSTAR":0.00045323326,"MEAN_MOTION_DOT":0.00008023,"MEAN_MOTION_DDOT":0},{"OBJECT_NAME":"LEMUR-2-LLOYD","OBJECT_ID":"2024-149DP","EPOCH":"2026-07-21T05:54:19.717920","CLASSIFICATION_TYPE":"U","MEAN_MOTION":15.09816837,"ECCENTRICITY":0.00041904,"INCLINATION":97.6731,"RA_OF_ASC_NODE":283.4059,"ARG_OF_PERICENTER":55.5572,"MEAN_ANOMALY":304.6053,"EPHEMERIS_TYPE":0,"NORAD_CAT_ID":60577,"ELEMENT_SET_NO":999,"REV_AT_EPOCH":10553,"BSTAR":0.00050010843,"MEAN_MOTION_DOT":0.00008025,"MEAN_MOTION_DDOT":0},{"OBJECT_NAME":"LEMUR-2-SQUIRRELCOMM","OBJECT_ID":"2024-149DQ","EPOCH":"2026-07-20T18:42:13.848480","CLASSIFICATION_TYPE":"U","MEAN_MOTION":15.07479136,"ECCENTRICITY":0.00040065,"INCLINATION":97.6699,"RA_OF_ASC_NODE":282.5908,"ARG_OF_PERICENTER":299.4293,"MEAN_ANOMALY":60.6535,"EPHEMERIS_TYPE":0,"NORAD_CAT_ID":60578,"ELEMENT_SET_NO":999,"REV_AT_EPOCH":10546,"BSTAR":0.00025844973,"MEAN_MOTION_DOT":0.00003857,"MEAN_MOTION_DDOT":0},{"OBJECT_NAME":"LEMUR-2-SIERRINI","OBJECT_ID":"2024-149DR","EPOCH":"2026-07-21T05:59:58.779168","CLASSIFICATION_TYPE":"U","MEAN_MOTION":15.11587709,"ECCENTRICITY":0.00060615,"INCLINATION":97.6829,"RA_OF_ASC_NODE":285.0069,"ARG_OF_PERICENTER":74.5951,"MEAN_ANOMALY":285.5948,"EPHEMERIS_TYPE":0,"NORAD_CAT_ID":60579,"ELEMENT_SET_NO":999,"REV_AT_EPOCH":10560,"BSTAR":0.00052195104,"MEAN_MOTION_DOT":0.00008801,"MEAN_MOTION_DDOT":0},{"OBJECT_NAME":"LEMUR-2-WILSON","OBJECT_ID":"2025-009CP","EPOCH":"2026-07-21T03:46:56.259840","CLASSIFICATION_TYPE":"U","MEAN_MOTION":14.95291454,"ECCENTRICITY":0.00016067,"INCLINATION":97.7015,"RA_OF_ASC_NODE":280.0266,"ARG_OF_PERICENTER":288.8228,"MEAN_ANOMALY":71.2818,"EPHEMERIS_TYPE":0,"NORAD_CAT_ID":62694,"ELEMENT_SET_NO":999,"REV_AT_EPOCH":8243,"BSTAR":0.00015997054,"MEAN_MOTION_DOT":0.00001705,"MEAN_MOTION_DDOT":0},{"OBJECT_NAME":"LEMUR-2-STAR-FOX","OBJECT_ID":"2025-009CR","EPOCH":"2026-07-21T04:27:28.829376","CLASSIFICATION_TYPE":"U","MEAN_MOTION":15.02890489,"ECCENTRICITY":0.00015834,"INCLINATION":97.69,"RA_OF_ASC_NODE":283.5498,"ARG_OF_PERICENTER":17.9972,"MEAN_ANOMALY":342.1308,"EPHEMERIS_TYPE":0,"NORAD_CAT_ID":62696,"ELEMENT_SET_NO":999,"REV_AT_EPOCH":8266,"BSTAR":0.00043476551,"MEAN_MOTION_DOT":0.00005773,"MEAN_MOTION_DDOT":0},{"OBJECT_NAME":"LEMUR-2-ARIANNA","OBJECT_ID":"2025-009CU","EPOCH":"2026-07-20T17:14:07.775520","CLASSIFICATION_TYPE":"U","MEAN_MOTION":15.02887787,"ECCENTRICITY":0.00019092,"INCLINATION":97.684,"RA_OF_ASC_NODE":282.8336,"ARG_OF_PERICENTER":29.6722,"MEAN_ANOMALY":330.4611,"EPHEMERIS_TYPE":0,"NORAD_CAT_ID":62699,"ELEMENT_SET_NO":999,"REV_AT_EPOCH":8259,"BSTAR":0.00036687247,"MEAN_MOTION_DOT":0.00004862,"MEAN_MOTION_DDOT":0},{"OBJECT_NAME":"LEMUR-2-ALISIA","OBJECT_ID":"2025-009DB","EPOCH":"2026-07-21T03:43:33.332160","CLASSIFICATION_TYPE":"U","MEAN_MOTION":15.03227903,"ECCENTRICITY":0.000493,"INCLINATION":97.6959,"RA_OF_ASC_NODE":284.1041,"ARG_OF_PERICENTER":113.3141,"MEAN_ANOMALY":246.8604,"EPHEMERIS_TYPE":0,"NORAD_CAT_ID":62706,"ELEMENT_SET_NO":999,"REV_AT_EPOCH":10526,"BSTAR":0.00042106007,"MEAN_MOTION_DOT":0.00005641,"MEAN_MOTION_DDOT":0},{"OBJECT_NAME":"LEMUR-2-ROUNDTRIPPER","OBJECT_ID":"2025-009DG","EPOCH":"2026-07-21T03:44:59.307936","CLASSIFICATION_TYPE":"U","MEAN_MOTION":15.04286343,"ECCENTRICITY":0.00044086,"INCLINATION":97.7239,"RA_OF_ASC_NODE":284.7966,"ARG_OF_PERICENTER":52.8285,"MEAN_ANOMALY":307.3343,"EPHEMERIS_TYPE":0,"NORAD_CAT_ID":62711,"ELEMENT_SET_NO":999,"REV_AT_EPOCH":8273,"BSTAR":0.0004096987,"MEAN_MOTION_DOT":0.00005644,"MEAN_MOTION_DDOT":0},{"OBJECT_NAME":"LEMUR-2-MYNAMEISJEFF","OBJECT_ID":"2025-009DH","EPOCH":"2026-07-20T22:55:30.004896","CLASSIFICATION_TYPE":"U","MEAN_MOTION":15.04275983,"ECCENTRICITY":0.00043326,"INCLINATION":97.7287,"RA_OF_ASC_NODE":284.9972,"ARG_OF_PERICENTER":86.1884,"MEAN_ANOMALY":273.9837,"EPHEMERIS_TYPE":0,"NORAD_CAT_ID":62712,"ELEMENT_SET_NO":999,"REV_AT_EPOCH":8270,"BSTAR":0.0004072,"MEAN_MOTION_DOT":0.00005608,"MEAN_MOTION_DDOT":0}]}
